start=new Date('2022-12-19T00:00:00.000Z').valueOf();
sats=[{"INCLINATION":"53.2185","APOAPSIS":"541.767","MEAN_MOTION":"15.08830949","REF_FRAME":"TEME","TLE_LINE1":"1 49758U 21115AL  22352.87332987  .00000868  00000-0  72688-4 0  9991","NORAD_CAT_ID":"49758","LAUNCH_DATE":"2021-12-02","ECCENTRICITY":"0.00028820","MEAN_ELEMENT_THEORY":"SGP4","REV_AT_EPOCH":"5801","EPHEMERIS_TYPE":"0","BSTAR":"0.00007268800000","SITE":"AFETR","FILE":"3709623","SEMIMAJOR_AXIS":"6917.908","RCS_SIZE":"LARGE","MEAN_MOTION_DOT":"0.00000868","PERIOD":"95.438","EPOCH":"2022-12-18T20:57:35.700768","OBJECT_TYPE":"PAYLOAD","MEAN_ANOMALY":"334.7709","PERIAPSIS":"537.779","ELEMENT_SET_NO":"999","CENTER_NAME":"EARTH","COUNTRY_CODE":"US","TLE_LINE2":"2 49758  53.2185  22.0651 0002882  25.3424 334.7709 15.08830949 58019","RA_OF_ASC_NODE":"22.0651","OBJECT_ID":"2021-115AL","TIME_SYSTEM":"UTC","ARG_OF_PERICENTER":"25.3424","MEAN_MOTION_DDOT":"0.0000000000000","CLASSIFICATION_TYPE":"U","DECAY_DATE":null,"GP_ID":"220869585","OBJECT_NAME":"STARLINK-3194"},{"TLE_LINE1":"1 49759U 21115AM  22352.79605205 -.00001281  00000-0 -62390-4 0  9990","REF_FRAME":"TEME","MEAN_MOTION":"15.08824757","APOAPSIS":"541.239","INCLINATION":"53.2159","REV_AT_EPOCH":"5800","MEAN_ELEMENT_THEORY":"SGP4","ECCENTRICITY":"0.00020910","LAUNCH_DATE":"2021-12-02","NORAD_CAT_ID":"49759","MEAN_MOTION_DOT":"-0.00001281","FILE":"3709623","RCS_SIZE":"LARGE","SEMIMAJOR_AXIS":"6917.927","SITE":"AFETR","BSTAR":"-0.00006239000000","EPHEMERIS_TYPE":"0","MEAN_ANOMALY":"314.2586","OBJECT_TYPE":"PAYLOAD","EPOCH":"2022-12-18T19:06:18.897120","PERIOD":"95.439","RA_OF_ASC_NODE":"22.4110","TLE_LINE2":"2 49759  53.2159  22.4110 0002091  45.8578 314.2586 15.08824757 58009","COUNTRY_CODE":"US","CENTER_NAME":"EARTH","PERIAPSIS":"538.345","ELEMENT_SET_NO":"999","MEAN_MOTION_DDOT":"0.0000000000000","CLASSIFICATION_TYPE":"U","ARG_OF_PERICENTER":"45.8578","TIME_SYSTEM":"UTC","OBJECT_ID":"2021-115AM","GP_ID":"220870836","OBJECT_NAME":"STARLINK-3204","DECAY_DATE":null},{"INCLINATION":"53.2186","MEAN_MOTION":"15.08842669","APOAPSIS":"541.534","REF_FRAME":"TEME","TLE_LINE1":"1 49760U 21115AN  22352.81443926 -.00001552  00000-0 -79413-4 0  9990","ECCENTRICITY":"0.00025970","LAUNCH_DATE":"2021-12-02","NORAD_CAT_ID":"49760","MEAN_ELEMENT_THEORY":"SGP4","REV_AT_EPOCH":"5801","BSTAR":"-0.00007941300000","EPHEMERIS_TYPE":"0","SITE":"AFETR","MEAN_MOTION_DOT":"-0.00001552","SEMIMAJOR_AXIS":"6917.872","FILE":"3709623","RCS_SIZE":"LARGE","PERIOD":"95.437","OBJECT_TYPE":"PAYLOAD","EPOCH":"2022-12-18T19:32:47.552064","MEAN_ANOMALY":"326.4241","CENTER_NAME":"EARTH","ELEMENT_SET_NO":"999","PERIAPSIS":"537.941","TLE_LINE2":"2 49760  53.2186  22.3291 0002597  33.6915 326.4241 15.08842669 58017","COUNTRY_CODE":"US","RA_OF_ASC_NODE":"22.3291","OBJECT_ID":"2021-115AN","TIME_SYSTEM":"UTC","ARG_OF_PERICENTER":"33.6915","MEAN_MOTION_DDOT":"0.0000000000000","CLASSIFICATION_TYPE":"U","DECAY_DATE":null,"OBJECT_NAME":"STARLINK-3199","GP_ID":"220870584"},{"DECAY_DATE":null,"OBJECT_NAME":"STARLINK-3203","GP_ID":"220869335","TIME_SYSTEM":"UTC","OBJECT_ID":"2021-115AP","MEAN_MOTION_DDOT":"0.0000000000000","CLASSIFICATION_TYPE":"U","ARG_OF_PERICENTER":"29.5525","COUNTRY_CODE":"US","TLE_LINE2":"2 49761  53.2173  22.3726 0002592  29.5525 330.5613 15.08831451 58008","ELEMENT_SET_NO":"999","PERIAPSIS":"537.978","CENTER_NAME":"EARTH","RA_OF_ASC_NODE":"22.3726","PERIOD":"95.438","MEAN_ANOMALY":"330.5613","EPOCH":"2022-12-18T19:16:54.787296","OBJECT_TYPE":"PAYLOAD","EPHEMERIS_TYPE":"0","BSTAR":"0.00001167300000","FILE":"3709623","SEMIMAJOR_AXIS":"6917.907","RCS_SIZE":"LARGE","MEAN_MOTION_DOT":"-0.00000103","SITE":"AFETR","MEAN_ELEMENT_THEORY":"SGP4","NORAD_CAT_ID":"49761","ECCENTRICITY":"0.00025920","LAUNCH_DATE":"2021-12-02","REV_AT_EPOCH":"5800","APOAPSIS":"541.565","MEAN_MOTION":"15.08831451","INCLINATION":"53.2173","TLE_LINE1":"1 49761U 21115AP  22352.80341189 -.00000103  00000-0  11673-4 0  9992","REF_FRAME":"TEME"},{"TIME_SYSTEM":"UTC","OBJECT_ID":"2021-115AQ","MEAN_MOTION_DDOT":"0.0000000000000","CLASSIFICATION_TYPE":"U","ARG_OF_PERICENTER":"31.1323","TLE_LINE2":"2 49762  53.2178  22.3017 0002591  31.1323 328.9823 15.08836545 58015","COUNTRY_CODE":"US","CENTER_NAME":"EARTH","PERIAPSIS":"537.964","ELEMENT_SET_NO":"999","RA_OF_ASC_NODE":"22.3017","DECAY_DATE":null,"OBJECT_NAME":"STARLINK-3195","GP_ID":"220870085","MEAN_ELEMENT_THEORY":"SGP4","ECCENTRICITY":"0.00025910","LAUNCH_DATE":"2021-12-02","NORAD_CAT_ID":"49762","REV_AT_EPOCH":"5801","MEAN_MOTION":"15.08836545","APOAPSIS":"541.548","INCLINATION":"53.2178","TLE_LINE1":"1 49762U 21115AQ  22352.82180936  .00001170  00000-0  91633-4 0  9994","REF_FRAME":"TEME","PERIOD":"95.438","MEAN_ANOMALY":"328.9823","EPOCH":"2022-12-18T19:43:24.328704","OBJECT_TYPE":"PAYLOAD","EPHEMERIS_TYPE":"0","BSTAR":"0.00009163300000","MEAN_MOTION_DOT":"0.00001170","FILE":"3709623","RCS_SIZE":"LARGE","SEMIMAJOR_AXIS":"6917.891","SITE":"AFETR"},{"DECAY_DATE":null,"OBJECT_NAME":"STARLINK-3198","GP_ID":"220870337","TIME_SYSTEM":"UTC","OBJECT_ID":"2021-115AR","MEAN_MOTION_DDOT":"0.0000000000000","CLASSIFICATION_TYPE":"U","ARG_OF_PERICENTER":"19.3066","TLE_LINE2":"2 49763  53.2182  22.3465 0003506  19.3066 340.8058 15.08835909 58013","COUNTRY_CODE":"US","CENTER_NAME":"EARTH","PERIAPSIS":"537.332","ELEMENT_SET_NO":"999","RA_OF_ASC_NODE":"22.3465","PERIOD":"95.438","MEAN_ANOMALY":"340.8058","EPOCH":"2022-12-18T19:27:29.809152","OBJECT_TYPE":"PAYLOAD","BSTAR":"0.00000873850000","EPHEMERIS_TYPE":"0","MEAN_MOTION_DOT":"-0.00000150","RCS_SIZE":"LARGE","FILE":"3709623","SEMIMAJOR_AXIS":"6917.893","SITE":"AFETR","MEAN_ELEMENT_THEORY":"SGP4","LAUNCH_DATE":"2021-12-02","ECCENTRICITY":"0.00035060","NORAD_CAT_ID":"49763","REV_AT_EPOCH":"5801","MEAN_MOTION":"15.08835909","APOAPSIS":"542.183","INCLINATION":"53.2182","TLE_LINE1":"1 49763U 21115AR  22352.81076168 -.00000150  00000-0  87385-5 0  9993","REF_FRAME":"TEME"},{"DECAY_DATE":null,"OBJECT_NAME":"STARLINK-3206","GP_ID":"220871083","OBJECT_ID":"2021-115AS","TIME_SYSTEM":"UTC","ARG_OF_PERICENTER":"29.0805","MEAN_MOTION_DDOT":"0.0000000000000","CLASSIFICATION_TYPE":"U","CENTER_NAME":"EARTH","PERIAPSIS":"537.846","ELEMENT_SET_NO":"999","TLE_LINE2":"2 49764  53.2168  22.2584 0002753  29.0805 331.0340 15.08838268 59132","COUNTRY_CODE":"US","RA_OF_ASC_NODE":"22.2584","PERIOD":"95.438","OBJECT_TYPE":"PAYLOAD","EPOCH":"2022-12-18T19:53:59.638272","MEAN_ANOMALY":"331.0340","EPHEMERIS_TYPE":"0","BSTAR":"0.00009583400000","SITE":"AFETR","MEAN_MOTION_DOT":"0.00001237","FILE":"3709623","SEMIMAJOR_AXIS":"6917.886","RCS_SIZE":"LARGE","LAUNCH_DATE":"2021-12-02","ECCENTRICITY":"0.00027530","NORAD_CAT_ID":"49764","MEAN_ELEMENT_THEORY":"SGP4","REV_AT_EPOCH":"5913","INCLINATION":"53.2168","MEAN_MOTION":"15.08838268","APOAPSIS":"541.655","REF_FRAME":"TEME","TLE_LINE1":"1 49764U 21115AS  22352.82916248  .00001237  00000-0  95834-4 0  9990"},{"RA_OF_ASC_NODE":"22.3063","CENTER_NAME":"EARTH","ELEMENT_SET_NO":"999","PERIAPSIS":"537.995","TLE_LINE2":"2 49765  53.2168  22.3063 0002567  31.4274 328.6871 15.08831655 58016","COUNTRY_CODE":"US","ARG_OF_PERICENTER":"31.4274","MEAN_MOTION_DDOT":"0.0000000000000","CLASSIFICATION_TYPE":"U","OBJECT_ID":"2021-115AT","TIME_SYSTEM":"UTC","OBJECT_NAME":"STARLINK-3227","GP_ID":"220869835","DECAY_DATE":null,"REF_FRAME":"TEME","TLE_LINE1":"1 49765U 21115AT  22352.81812591  .00000306  00000-0  37357-4 0  9998","INCLINATION":"53.2168","MEAN_MOTION":"15.08831655","APOAPSIS":"541.547","REV_AT_EPOCH":"5801","LAUNCH_DATE":"2021-12-02","ECCENTRICITY":"0.00025670","NORAD_CAT_ID":"49765","MEAN_ELEMENT_THEORY":"SGP4","SITE":"AFETR","MEAN_MOTION_DOT":"0.00000306","RCS_SIZE":"LARGE","FILE":"3709623","SEMIMAJOR_AXIS":"6917.906","BSTAR":"0.00003735700000","EPHEMERIS_TYPE":"0","OBJECT_TYPE":"PAYLOAD","EPOCH":"2022-12-18T19:38:06.078624","MEAN_ANOMALY":"328.6871","PERIOD":"95.438"},{"RA_OF_ASC_NODE":"23.4326","COUNTRY_CODE":"US","TLE_LINE2":"2 49766  53.2163  23.4326 0002154  56.0539 304.0658 15.08847846 57979","ELEMENT_SET_NO":"999","PERIAPSIS":"538.231","CENTER_NAME":"EARTH","CLASSIFICATION_TYPE":"U","MEAN_MOTION_DDOT":"0.0000000000000","ARG_OF_PERICENTER":"56.0539","TIME_SYSTEM":"UTC","OBJECT_ID":"2021-115AU","GP_ID":"220869586","OBJECT_NAME":"STARLINK-3190","DECAY_DATE":null,"TLE_LINE1":"1 49766U 21115AU  22352.56789426  .00005942  00000-0  39102-3 0  9991","REF_FRAME":"TEME","APOAPSIS":"541.212","MEAN_MOTION":"15.08847846","INCLINATION":"53.2163","REV_AT_EPOCH":"5797","MEAN_ELEMENT_THEORY":"SGP4","NORAD_CAT_ID":"49766","LAUNCH_DATE":"2021-12-02","ECCENTRICITY":"0.00021540","FILE":"3709623","RCS_SIZE":"LARGE","SEMIMAJOR_AXIS":"6917.856","MEAN_MOTION_DOT":"0.00005942","SITE":"AFETR","EPHEMERIS_TYPE":"0","BSTAR":"0.00039102000000","MEAN_ANOMALY":"304.0658","OBJECT_TYPE":"PAYLOAD","EPOCH":"2022-12-18T13:37:46.064064","PERIOD":"95.437"},{"OBJECT_TYPE":"PAYLOAD","EPOCH":"2022-12-18T19:48:41.799456","MEAN_ANOMALY":"327.0344","PERIOD":"95.438","SITE":"AFETR","RCS_SIZE":"LARGE","FILE":"3709623","SEMIMAJOR_AXIS":"6917.889","MEAN_MOTION_DOT":"0.00000059","EPHEMERIS_TYPE":"0","BSTAR":"0.00002184500000","REV_AT_EPOCH":"5801","NORAD_CAT_ID":"49767","LAUNCH_DATE":"2021-12-02","ECCENTRICITY":"0.00024610","MEAN_ELEMENT_THEORY":"SGP4","REF_FRAME":"TEME","TLE_LINE1":"1 49767U 21115AV  22352.82548379  .00000059  00000-0  21845-4 0  9991","INCLINATION":"53.2167","APOAPSIS":"541.456","MEAN_MOTION":"15.08837300","OBJECT_NAME":"STARLINK-3192","GP_ID":"220870837","DECAY_DATE":null,"ARG_OF_PERICENTER":"33.0802","MEAN_MOTION_DDOT":"0.0000000000000","CLASSIFICATION_TYPE":"U","OBJECT_ID":"2021-115AV","TIME_SYSTEM":"UTC","RA_OF_ASC_NODE":"22.2794","PERIAPSIS":"538.051","ELEMENT_SET_NO":"999","CENTER_NAME":"EARTH","COUNTRY_CODE":"US","TLE_LINE2":"2 49767  53.2167  22.2794 0002461  33.0802 327.0344 15.08837300 58016"}];
